{
    "links": {
        "self": "http://www.neowsapp.com/rest/v1/neo/3797668?api_key=iIulBulltgU6a56xZRHN4H3l9WmuAYTsLGpBGhQ2"
    },
    "id": "3797668",
    "neo_reference_id": "3797668",
    "name": "(2018 AT11)",
    "designation": "2018 AT11",
    "nasa_jpl_url": "http://ssd.jpl.nasa.gov/sbdb.cgi?sstr=3797668",
    "absolute_magnitude_h": 25.0,
    "estimated_diameter": {
        "kilometers": {
            "estimated_diameter_min": 0.02658,
            "estimated_diameter_max": 0.0594346868
        },
        "meters": {
            "estimated_diameter_min": 26.58,
            "estimated_diameter_max": 59.4346868419
        },
        "miles": {
            "estimated_diameter_min": 0.0165160412,
            "estimated_diameter_max": 0.0369309908
        },
        "feet": {
            "estimated_diameter_min": 87.2047272,
            "estimated_diameter_max": 194.9956979785
        }
    },
    "is_potentially_hazardous_asteroid": false,
    "close_approach_data": [
        {
            "close_approach_date": "1956-12-09",
            "close_approach_date_full": "1956-Dec-09 13:01",
            "epoch_date_close_approach": -412167540000,
            "relative_velocity": {
                "kilometers_per_second": "20.1399165299",
                "kilometers_per_hour": "72503.6995077804",
                "miles_per_hour": "45050.9792858205"
            },
            "miss_distance": {
                "astronomical": "0.4874483634",
                "lunar": "189.6174133626",
                "kilometers": "72921236.899625958",
                "miles": "45311155.5032279004"
            },
            "orbiting_body": "Earth"
        },
        {
            "close_approach_date": "2018-01-15",
            "close_approach_date_full": "2018-Jan-15 23:07",
            "epoch_date_close_approach": 1516057620000,
            "relative_velocity": {
                "kilometers_per_second": "6.9194037998",
                "kilometers_per_hour": "24909.8536793859",
                "miles_per_hour": "15478.0143598384"
            },
            "miss_distance": {
                "astronomical": "0.0277986823",
                "lunar": "10.8136874147",
                "kilometers": "4158623.660886701",
                "miles": "2584048.9189344338"
            },
            "orbiting_body": "Earth"
        }
    ],
    "orbital_data": {
        "orbit_id": "4",
        "orbit_determination_date": "2018-02-04 07:23:40",
        "first_observation_date": "2018-01-13",
        "last_observation_date": "2018-01-28",
        "data_arc_in_days": 15,
        "observations_used": 22,
        "orbit_uncertainty": "7",
        "minimum_orbit_intersection": ".0229969",
        "jupiter_tisserand_invariant": "4.634",
        "epoch_osculation": "2459000.5",
        "eccentricity": ".3132756182029122",
        "semi_major_axis": "1.424261785054777",
        "inclination": "9.239260174414353",
        "ascending_node_longitude": "288.3452861274983",
        "orbital_period": "620.8449593687088",
        "perihelion_distance": ".9780752938589585",
        "perihelion_argument": "210.7640690350018",
        "aphelion_distance": "1.870448276250595",
        "perihelion_time": "2458776.353661964968",
        "mean_anomaly": "129.9723553762312",
        "mean_motion": ".5798549131590878",
        "equinox": "J2000",
        "orbit_class": {
            "orbit_class_type": "APO",
            "orbit_class_description": "Near-Earth asteroid orbits which cross the Earth’s orbit similar to that of 1862 Apollo",
            "orbit_class_range": "a (semi-major axis) > 1.0 AU; q (perihelion) < 1.017 AU"
        }
    },
    "is_sentry_object": false
}